NORAD_CAT_ID,OBJECT_NAME,OBJECT_TYPE,EPOCH,MEAN_MOTION,ECCENTRICITY,INCLINATION,RA_OF_ASC_NODE,ARG_OF_PERICENTER,MEAN_ANOMALY,BSTAR,MEAN_MOTION_DOT,MEAN_MOTION_DDOT,TLE_LINE0,TLE_LINE1,TLE_LINE2,SEMIMAJOR_AXIS,PERIOD,APOGEE,PERIGEE,DECAYED
53534.0,STARLINK-4488,PAYLOAD,2024-02-06 20:49:38,15.08844202,0.0001415,53.2169,253.8042,90.559,269.5564,3.5882e-05,2.83e-06,0.0,0 STARLINK-4488,1 53534U 22101H   24037.86780694  .00000283  00000-0  35882-4 0  9993,2 53534  53.2169 253.8042 0001415  90.5590 269.5564 15.08844202 81168,6917.868,95.437,540.711,538.754,0.0
53534.0,STARLINK-4488,PAYLOAD,2024-02-07 14:18:53,15.08838211,0.0001383,53.2165,250.5281,106.1269,253.9876,-9.1369e-06,-4.33e-06,0.0,0 STARLINK-4488,1 53534U 22101H   24038.59645055 -.00000433  00000-0 -91369-5 0  9997,2 53534  53.2165 250.5281 0001383 106.1269 253.9876 15.08838211 81272,6917.886,95.438,540.708,538.794,0.0
53534.0,STARLINK-4488,PAYLOAD,2024-02-07 19:05:02,15.08838657,0.0001341,53.2162,249.6368,107.6781,252.4358,2.8714e-05,1.69e-06,0.0,0 STARLINK-4488,1 53534U 22101H   24038.79516899  .00000169  00000-0  28714-4 0  9999,2 53534  53.2162 249.6368 0001341 107.6781 252.4358 15.08838657 81300,6917.884,95.438,540.677,538.822,0.0
53534.0,STARLINK-4488,PAYLOAD,2024-02-08 14:09:40,15.08816825,0.000148,53.2163,246.0694,109.9705,250.1446,0.00017632,2.518e-05,0.0,0 STARLINK-4488,1 53534U 22101H   24039.59005750  .00002518  00000-0  17632-3 0  9993,2 53534  53.2163 246.0694 0001480 109.9705 250.1446 15.08816825 81428,6917.951,95.439,540.84,538.792,0.0
53534.0,STARLINK-4488,PAYLOAD,2024-02-08 18:55:50,15.0883268,0.0001454,53.2167,245.1773,109.3109,250.804,-1.3309e-06,-3.09e-06,0.0,0 STARLINK-4488,1 53534U 22101H   24039.78877712 -.00000309  00000-0 -13309-5 0  9996,2 53534  53.2167 245.1773 0001454 109.3109 250.8040 15.08832680 81450,6917.903,95.438,540.774,538.762,0.0
53534.0,STARLINK-4488,PAYLOAD,2024-02-09 14:00:28,15.08834608,0.0001265,53.2169,241.6128,97.1477,262.9659,6.7503e-05,7.86e-06,0.0,0 STARLINK-4488,1 53534U 22101H   24040.58365764  .00000786  00000-0  67503-4 0  9996,2 53534  53.2169 241.6128 0001265  97.1477 262.9659 15.08834608 81574,6917.897,95.438,540.637,538.887,0.0
53534.0,STARLINK-4488,PAYLOAD,2024-02-09 18:46:37,15.08837815,0.0001311,53.2168,240.7207,96.0209,264.0932,9.1546e-05,1.169e-05,0.0,0 STARLINK-4488,1 53534U 22101H   24040.78237562  .00001169  00000-0  91546-4 0  9992,2 53534  53.2168 240.7207 0001311  96.0209 264.0932 15.08837815 81608,6917.887,95.438,540.659,538.845,0.0
53534.0,STARLINK-4488,PAYLOAD,2024-02-10 20:12:47,15.08840984,0.0001138,53.2155,235.9623,81.6139,278.4982,0.00012502,1.702e-05,0.0,0 STARLINK-4488,1 53534U 22101H   24041.84221557  .00001702  00000-0  12502-3 0  9994,2 53534  53.2155 235.9623 0001138  81.6139 278.4982 15.08840984 81763,6917.877,95.437,540.53,538.955,0.0
53534.0,STARLINK-4488,PAYLOAD,2024-02-10 21:48:10,15.08842731,0.0001253,53.2162,235.6649,96.1437,263.9698,0.00013594,1.876e-05,0.0,0 STARLINK-4488,1 53534U 22101H   24041.90845390  .00001876  00000-0  13594-3 0  9992,2 53534  53.2162 235.6649 0001253  96.1437 263.9698 15.08842731 81772,6917.872,95.437,540.604,538.87,0.0
53534.0,STARLINK-4488,PAYLOAD,2024-02-10 23:23:33,15.08843827,0.0001217,53.2158,235.3667,95.2069,264.9062,0.00014361,1.999e-05,0.0,0 STARLINK-4488,1 53534U 22101H   24041.97469297  .00001999  00000-0  14361-3 0  9996,2 53534  53.2158 235.3667 0001217  95.2069 264.9062 15.08843827 81789,6917.869,95.437,540.576,538.892,0.0
53534.0,STARLINK-4488,PAYLOAD,2024-02-11 20:03:34,15.08845154,0.0001228,53.2161,231.5003,95.0669,265.0463,5.1091e-05,5.25e-06,0.0,0 STARLINK-4488,1 53534U 22101H   24042.83581355  .00000525  00000-0  51091-4 0  9998,2 53534  53.2161 231.5003 0001228  95.0669 265.0463 15.08845154 81918,6917.865,95.437,540.579,538.88,0.0
53534.0,STARLINK-4488,PAYLOAD,2024-02-12 11:57:26,15.08839529,0.000126,53.216,228.5274,78.981,281.1324,-8.6518e-06,-4.26e-06,0.0,0 STARLINK-4488,1 53534U 22101H   24043.49822009 -.00000426  00000-0 -86518-5 0  9990,2 53534  53.2160 228.5274 0001260  78.9810 281.1324 15.08839529 82013,6917.882,95.438,540.618,538.875,0.0
53534.0,STARLINK-4488,PAYLOAD,2024-02-12 19:54:21,15.08842934,0.0001266,53.2163,227.0401,86.5562,273.5575,8.6767e-06,-1.5e-06,0.0,0 STARLINK-4488,1 53534U 22101H   24043.82941671 -.00000150  00000-0  86767-5 0  9993,2 53534  53.2163 227.0401 0001266  86.5562 273.5575 15.08842934 82069,6917.871,95.437,540.612,538.861,0.0
53534.0,STARLINK-4488,PAYLOAD,2024-02-13 18:09:45,15.08843008,0.0001258,53.2164,222.8783,90.8042,269.3094,7.5384e-05,9.12e-06,0.0,0 STARLINK-4488,1 53534U 22101H   24044.75677401  .00000912  00000-0  75384-4 0  9990,2 53534  53.2164 222.8783 0001258  90.8042 269.3094 15.08843008 82206,6917.871,95.437,540.606,538.866,0.0
53534.0,STARLINK-4488,PAYLOAD,2024-02-14 14:49:46,15.08838813,0.0001389,53.2168,219.0121,94.4617,265.6534,4.4823e-05,4.25e-06,0.0,0 STARLINK-4488,1 53534U 22101H   24045.61789720  .00000425  00000-0  44823-4 0  9997,2 53534  53.2168 219.0121 0001389  94.4617 265.6534 15.08838813 82337,6917.884,95.438,540.71,538.788,0.0
53534.0,STARLINK-4488,PAYLOAD,2024-02-14 21:11:18,15.08843858,0.0001472,53.2174,217.8207,105.0729,255.0426,4.8091e-05,4.78e-06,0.0,0 STARLINK-4488,1 53534U 22101H   24045.88285306  .00000478  00000-0  48091-4 0  9996,2 53534  53.2174 217.8207 0001472 105.0729 255.0426 15.08843858 82373,6917.869,95.437,540.752,538.715,0.0
53534.0,STARLINK-4488,PAYLOAD,2024-02-15 14:40:33,15.08831147,0.0001547,53.2176,214.5487,105.6556,254.4607,7.3984e-05,8.89e-06,0.0,0 STARLINK-4488,1 53534U 22101H   24046.61149977  .00000889  00000-0  73984-4 0  9996,2 53534  53.2176 214.5487 0001547 105.6556 254.4607 15.08831147 82480,6917.907,95.438,540.843,538.702,0.0
53534.0,STARLINK-4488,PAYLOAD,2024-02-15 17:51:19,15.08839371,0.0001541,53.2171,213.9562,94.7576,265.3592,2.3486e-05,8.6e-07,0.0,0 STARLINK-4488,1 53534U 22101H   24046.74397782  .00000086  00000-0  23486-4 0  9990,2 53534  53.2171 213.9562 0001541  94.7576 265.3592 15.08839371 82500,6917.882,95.438,540.813,538.681,0.0
53534.0,STARLINK-4488,PAYLOAD,2024-02-16 11:20:36,15.08812098,0.0001359,53.2175,210.6841,89.0191,271.0957,-0.00014913,-2.659e-05,0.0,0 STARLINK-4488,1 53534U 22101H   24047.47264889 -.00002659  00000-0 -14913-3 0  9996,2 53534  53.2175 210.6841 0001359  89.0191 271.0957 15.08812098 82613,6917.966,95.439,540.771,538.891,0.0
53534.0,STARLINK-4488,PAYLOAD,2024-02-16 14:31:23,15.08815315,0.0002255,53.217,210.0905,19.2644,340.8433,-8.9899e-05,-1.718e-05,0.0,0 STARLINK-4488,1 53534U 22101H   24047.60513049 -.00001718  00000-0 -89899-4 0  9997,2 53534  53.2170 210.0905 0002255  19.2644 340.8433 15.08815315 82638,6917.956,95.439,541.381,538.261,0.0
53534.0,STARLINK-4488,PAYLOAD,2024-02-16 19:17:31,15.08832306,0.0001712,53.2175,209.1968,122.3483,237.7675,9.4609e-06,-1.38e-06,0.0,0 STARLINK-4488,1 53534U 22101H   24047.80383462 -.00000138  00000-0  94609-5 0  9993,2 53534  53.2175 209.1968 0001712 122.3483 237.7675 15.08832306 82669,6917.904,95.438,540.953,538.585,0.0
53534.0,STARLINK-4488,PAYLOAD,2024-02-17 11:11:22,15.08839224,0.0001253,53.2165,206.2242,96.9084,263.2051,8.1386e-05,1.008e-05,0.0,0 STARLINK-4488,1 53534U 22101H   24048.46623016  .00001008  00000-0  81386-4 0  9991,2 53534  53.2165 206.2242 0001253  96.9084 263.2051 15.08839224 82763,6917.883,95.438,540.615,538.881,0.0
53534.0,STARLINK-4488,PAYLOAD,2024-02-17 14:22:08,15.08840701,0.0001304,53.2165,205.63,98.4836,261.6304,0.00012282,1.667e-05,0.0,0 STARLINK-4488,1 53534U 22101H   24048.59870826  .00001667  00000-0  12282-3 0  9997,2 53534  53.2165 205.6300 0001304  98.4836 261.6304 15.08840701 82787,6917.878,95.438,540.645,538.841,0.0
53534.0,STARLINK-4488,PAYLOAD,2024-02-17 17:32:54,15.08846986,0.0001372,53.2168,205.0382,105.0799,255.0345,0.00015473,2.176e-05,0.0,0 STARLINK-4488,1 53534U 22101H   24048.73118362  .00002176  00000-0  15473-3 0  9994,2 53534  53.2168 205.0382 0001372 105.0799 255.0345 15.08846986 82808,6917.859,95.437,540.673,538.775,0.0
53534.0,STARLINK-4488,PAYLOAD,2024-02-18 14:12:55,15.08825239,0.0001294,53.217,201.1718,118.1855,241.9268,0.00046583,7.131e-05,0.0,0 STARLINK-4488,1 53534U 22101H   24049.59231069  .00007131  00000-0  46583-3 0  9991,2 53534  53.2170 201.1718 0001294 118.1855 241.9268 15.08825239 82932,6917.926,95.438,540.686,538.895,0.0
53534.0,STARLINK-4488,PAYLOAD,2024-02-18 18:59:04,15.08848341,0.0001366,53.2169,200.2795,113.5254,246.5881,0.00032661,4.915e-05,0.0,0 STARLINK-4488,1 53534U 22101H   24049.79102186  .00004915  00000-0  32661-3 0  9999,2 53534  53.2169 200.2795 0001366 113.5254 246.5881 15.08848341 82961,6917.855,95.437,540.665,538.775,0.0
53534.0,STARLINK-4488,PAYLOAD,2024-02-18 20:34:27,15.08851073,0.0001224,53.2162,199.9812,118.9159,241.1956,0.00035198,5.32e-05,0.0,0 STARLINK-4488,1 53534U 22101H   24049.85725950  .00005320  00000-0  35198-3 0  9995,2 53534  53.2162 199.9812 0001224 118.9159 241.1956 15.08851073 82975,6917.847,95.437,540.558,538.865,0.0
53534.0,STARLINK-4488,PAYLOAD,2024-02-19 02:56:00,15.08845704,0.0001357,53.216,198.7866,97.0681,263.0465,3.4881e-05,2.67e-06,0.0,0 STARLINK-4488,1 53534U 22101H   24050.12222858  .00000267  00000-0  34881-4 0  9990,2 53534  53.2160 198.7866 0001357  97.0681 263.0465 15.08845704 83011,6917.863,95.437,540.667,538.789,0.0
53534.0,STARLINK-4488,PAYLOAD,2024-02-19 14:03:41,15.0885098,8.51e-05,53.2163,196.7054,102.9628,257.1459,6.5481e-05,7.55e-06,0.0,0 STARLINK-4488,1 53534U 22101H   24050.58590056  .00000755  00000-0  65481-4 0  9990,2 53534  53.2163 196.7054 0000851 102.9628 257.1459 15.08850980 83082,6917.847,95.437,540.301,539.123,0.0
53534.0,STARLINK-4488,PAYLOAD,2024-02-19 17:14:27,15.08861844,0.0001434,53.2167,196.1094,116.1507,243.9633,0.00010593,1.399e-05,0.0,0 STARLINK-4488,1 53534U 22101H   24050.71837142  .00001399  00000-0  10593-3 0  9993,2 53534  53.2167 196.1094 0001434 116.1507 243.9633 15.08861844 83106,6917.814,95.436,540.671,538.687,0.0
